{"type": "FeatureCollection", "features": [ {"type": "Feature", "properties": {"norad_id": 30528, "name": "FENGYUN 1C DEB", "group": "fengyun-1c-debris", "lat": -49.20809952383207, "lon": -141.22452884485196, "alt_km": 803.6666396857363, "timestamp": "2025-12-04T21:36:16.149920+00:00", "meta": {"OBJECT_NAME": "FENGYUN 1C DEB", "OBJECT_ID": "1999-025AJS", "EPOCH": "2025-12-04T15:19:01.107264", "MEAN_MOTION": 14.13475748, "ECCENTRICITY": 0.01432057, "INCLINATION": 98.2385, "RA_OF_ASC_NODE": 208.8687, "ARG_OF_PERICENTER": 249.5316, "MEAN_ANOMALY": 166.8803, "EPHEMERIS_TYPE": 0, "CLASSIFICATION_TYPE": "U", "NORAD_CAT_ID": 30528, "ELEMENT_SET_NO": 999, "REV_AT_EPOCH": 97023, "BSTAR": 0.00067528164, "MEAN_MOTION_DOT": 1.361e-05, "MEAN_MOTION_DDOT": 0}, "tle": {"line1": "1 30528U 99025AJS 25338.63820726  .00001361  00000+0  67528-3 0  9999", "line2": "2 30528  98.2385 208.8687 0143205 249.5316 166.8803 14.13475748970236"}}, "geometry": {"type": "Point", "coordinates": [-141.22452884485196, -49.20809952383207]}}, {"type": "Feature", "properties": {"norad_id": 30529, "name": "FENGYUN 1C DEB", "group": "fengyun-1c-debris", "lat": -80.36483943112034, "lon": -36.75622770557927, "alt_km": 854.0582534404457, "timestamp": "2025-12-04T21:36:16.149930+00:00", "meta": {"OBJECT_NAME": "FENGYUN 1C DEB", "OBJECT_ID": "1999-025AJT", "EPOCH": "2025-11-29T05:27:15.583680", "MEAN_MOTION": 13.71563264, "ECCENTRICITY": 0.02312369, "INCLINATION": 98.4867, "RA_OF_ASC_NODE": 256.6436, "ARG_OF_PERICENTER": 258.7814, "MEAN_ANOMALY": 98.7267, "EPHEMERIS_TYPE": 0, "CLASSIFICATION_TYPE": "U", "NORAD_CAT_ID": 30529, "ELEMENT_SET_NO": 999, "REV_AT_EPOCH": 93823, "BSTAR": 0.0010152988, "MEAN_MOTION_DOT": 1.068e-05, "MEAN_MOTION_DDOT": 0}, "tle": {"line1": "1 30529U 99025AJT 25333.22726370  .00001068  00000+0  10153-2 0  9995", "line2": "2 30529  98.4867 256.6436 0231236 258.7814  98.7267 13.71563264938239"}}, "geometry": {"type": "Point", "coordinates": [-36.75622770557927, -80.36483943112034]}}, {"type": "Feature", "properties": {"norad_id": 30530, "name": "FENGYUN 1C DEB", "group": "fengyun-1c-debris", "lat": -31.30749403484666, "lon": -167.69181078047137, "alt_km": 730.3596670070738, "timestamp": "2025-12-04T21:36:16.149940+00:00", "meta": {"OBJECT_NAME": "FENGYUN 1C DEB", "OBJECT_ID": "1999-025AJU", "EPOCH": "2025-12-04T16:11:52.689696", "MEAN_MOTION": 14.36764001, "ECCENTRICITY": 0.00998875, "INCLINATION": 98.3974, "RA_OF_ASC_NODE": 17.2428, "ARG_OF_PERICENTER": 160.7191, "MEAN_ANOMALY": 325.4579, "EPHEMERIS_TYPE": 0, "CLASSIFICATION_TYPE": "U", "NORAD_CAT_ID": 30530, "ELEMENT_SET_NO": 999, "REV_AT_EPOCH": 98669, "BSTAR": 0.00046152478, "MEAN_MOTION_DOT": 1.398e-05, "MEAN_MOTION_DDOT": 0}, "tle": {"line1": "1 30530U 99025AJU 25338.67491539  .00001398  00000+0  46152-3 0  9992", "line2": "2 30530  98.3974  17.2428 0099887 160.7191 325.4579 14.36764001986698"}}, "geometry": {"type": "Point", "coordinates": [-167.69181078047137, -31.30749403484666]}}, {"type": "Feature", "properties": {"norad_id": 30531, "name": "FENGYUN 1C DEB", "group": "fengyun-1c-debris", "lat": -77.06755199865998, "lon": -90.70390684443657, "alt_km": 680.0271997279751, "timestamp": "2025-12-04T21:36:16.149951+00:00", "meta": {"OBJECT_NAME": "FENGYUN 1C DEB", "OBJECT_ID": "1999-025AJV", "EPOCH": "2025-12-02T10:52:29.173152", "MEAN_MOTION": 14.61149608, "ECCENTRICITY": 0.00296494, "INCLINATION": 102.3095, "RA_OF_ASC_NODE": 157.6437, "ARG_OF_PERICENTER": 233.0131, "MEAN_ANOMALY": 126.8339, "EPHEMERIS_TYPE": 0, "CLASSIFICATION_TYPE": "U", "NORAD_CAT_ID": 30531, "ELEMENT_SET_NO": 999, "REV_AT_EPOCH": 97545, "BSTAR": 0.0056197798, "MEAN_MOTION_DOT": 0.00027868, "MEAN_MOTION_DDOT": 0}, "tle": {"line1": "1 30531U 99025AJV 25336.45311543  .00027868  00000+0  56198-2 0  9993", "line2": "2 30531 102.3095 157.6437 0029649 233.0131 126.8339 14.61149608975452"}}, "geometry": {"type": "Point", "coordinates": [-90.70390684443657, -77.06755199865998]}}, {"type": "Feature", "properties": {"norad_id": 30532, "name": "FENGYUN 1C DEB", "group": "fengyun-1c-debris", "lat": 79.60649274825279, "lon": -113.50872510195687, "alt_km": 517.9387892814921, "timestamp": "2025-12-04T21:36:16.149961+00:00", "meta": {"OBJECT_NAME": "FENGYUN 1C DEB", "OBJECT_ID": "1999-025AJW", "EPOCH": "2025-12-04T08:31:57.708192", "MEAN_MOTION": 15.19435062, "ECCENTRICITY": 0.00283805, "INCLINATION": 96.962, "RA_OF_ASC_NODE": 24.2126, "ARG_OF_PERICENTER": 284.7584, "MEAN_ANOMALY": 75.0507, "EPHEMERIS_TYPE": 0, "CLASSIFICATION_TYPE": "U", "NORAD_CAT_ID": 30532, "ELEMENT_SET_NO": 999, "REV_AT_EPOCH": 97560, "BSTAR": 0.02360337, "MEAN_MOTION_DOT": 0.00536143, "MEAN_MOTION_DDOT": 0}, "tle": {"line1": "1 30532U 99025AJW 25338.35552903  .00536143  00000+0  23603-1 0  9997", "line2": "2 30532  96.9620  24.2126 0028380 284.7584  75.0507 15.19435062975600"}}, "geometry": {"type": "Point", "coordinates": [-113.50872510195687, 79.60649274825279]}}, {"type": "Feature", "properties": {"norad_id": 30533, "name": "FENGYUN 1C DEB", "group": "fengyun-1c-debris", "lat": 69.13458081521391, "lon": -48.62998890801171, "alt_km": 681.0778635857869, "timestamp": "2025-12-04T21:36:16.149971+00:00", "meta": {"OBJECT_NAME": "FENGYUN 1C DEB", "OBJECT_ID": "1999-025AJX", "EPOCH": "2025-12-04T08:08:07.808928", "MEAN_MOTION": 14.5336599, "ECCENTRICITY": 0.00838609, "INCLINATION": 98.8347, "RA_OF_ASC_NODE": 106.6973, "ARG_OF_PERICENTER": 174.3877, "MEAN_ANOMALY": 240.7589, "EPHEMERIS_TYPE": 0, "CLASSIFICATION_TYPE": "U", "NORAD_CAT_ID": 30533, "ELEMENT_SET_NO": 999, "REV_AT_EPOCH": 97699, "BSTAR": 0.010030219, "MEAN_MOTION_DOT": 0.00043912, "MEAN_MOTION_DDOT": 0}, "tle": {"line1": "1 30533U 99025AJX 25338.33897927  .00043912  00000+0  10030-1 0  9991", "line2": "2 30533  98.8347 106.6973 0083860 174.3877 240.7589 14.53365990976999"}}, "geometry": {"type": "Point", "coordinates": [-48.62998890801171, 69.13458081521391]}}, {"type": "Feature", "properties": {"norad_id": 30539, "name": "FENGYUN 1C DEB", "group": "fengyun-1c-debris", "lat": 34.05024960616732, "lon": 144.92747477052987, "alt_km": 780.0286577991728, "timestamp": "2025-12-04T21:36:16.149981+00:00", "meta": {"OBJECT_NAME": "FENGYUN 1C DEB", "OBJECT_ID": "1999-025AKD", "EPOCH": "2025-12-04T04:25:48.323712", "MEAN_MOTION": 14.55315506, "ECCENTRICITY": 0.01159257, "INCLINATION": 98.8785, "RA_OF_ASC_NODE": 318.1035, "ARG_OF_PERICENTER": 301.9845, "MEAN_ANOMALY": 57.0125, "EPHEMERIS_TYPE": 0, "CLASSIFICATION_TYPE": "U", "NORAD_CAT_ID": 30539, "ELEMENT_SET_NO": 999, "REV_AT_EPOCH": 99241, "BSTAR": 0.0016813481, "MEAN_MOTION_DOT": 7.929e-05, "MEAN_MOTION_DDOT": 0}, "tle": {"line1": "1 30539U 99025AKD 25338.18458708  .00007929  00000+0  16813-2 0  9994", "line2": "2 30539  98.8785 318.1035 0115925 301.9845  57.0125 14.55315506992411"}}, "geometry": {"type": "Point", "coordinates": [144.92747477052987, 34.05024960616732]}}, {"type": "Feature", "properties": {"norad_id": 30540, "name": "FENGYUN 1C DEB", "group": "fengyun-1c-debris", "lat": -71.26732392227129, "lon": 114.5098067096776, "alt_km": 826.8394354263137, "timestamp": "2025-12-04T21:36:16.150013+00:00", "meta": {"OBJECT_NAME": "FENGYUN 1C DEB", "OBJECT_ID": "1999-025AKE", "EPOCH": "2025-12-04T14:09:33.071904", "MEAN_MOTION": 14.32140149, "ECCENTRICITY": 0.00523694, "INCLINATION": 98.8795, "RA_OF_ASC_NODE": 86.7413, "ARG_OF_PERICENTER": 86.5895, "MEAN_ANOMALY": 41.7164, "EPHEMERIS_TYPE": 0, "CLASSIFICATION_TYPE": "U", "NORAD_CAT_ID": 30540, "ELEMENT_SET_NO": 999, "REV_AT_EPOCH": 97169, "BSTAR": 0.0048335554, "MEAN_MOTION_DOT": 0.00013183, "MEAN_MOTION_DDOT": 0}, "tle": {"line1": "1 30540U 99025AKE 25338.58996611  .00013183  00000+0  48336-2 0  9994", "line2": "2 30540  98.8795  86.7413 0052369  86.5895  41.7164 14.32140149971699"}}, "geometry": {"type": "Point", "coordinates": [114.5098067096776, -71.26732392227129]}}, {"type": "Feature", "properties": {"norad_id": 30541, "name": "FENGYUN 1C DEB", "group": "fengyun-1c-debris", "lat": -38.584829349380705, "lon": -161.471712636321, "alt_km": 826.5235383927529, "timestamp": "2025-12-04T21:36:16.150024+00:00", "meta": {"OBJECT_NAME": "FENGYUN 1C DEB", "OBJECT_ID": "1999-025AKF", "EPOCH": "2025-12-04T08:46:02.797824", "MEAN_MOTION": 14.22988268, "ECCENTRICITY": 0.00187297, "INCLINATION": 98.6955, "RA_OF_ASC_NODE": 25.0137, "ARG_OF_PERICENTER": 109.2248, "MEAN_ANOMALY": 251.0959, "EPHEMERIS_TYPE": 0, "CLASSIFICATION_TYPE": "U", "NORAD_CAT_ID": 30541, "ELEMENT_SET_NO": 999, "REV_AT_EPOCH": 97208, "BSTAR": 0.0025566257, "MEAN_MOTION_DOT": 5.727e-05, "MEAN_MOTION_DDOT": 0}, "tle": {"line1": "1 30541U 99025AKF 25338.36531016  .00005727  00000+0  25566-2 0  9990", "line2": "2 30541  98.6955  25.0137 0018729 109.2248 251.0959 14.22988268972085"}}, "geometry": {"type": "Point", "coordinates": [-161.471712636321, -38.584829349380705]}}, {"type": "Feature", "properties": {"norad_id": 30542, "name": "FENGYUN 1C DEB", "group": "fengyun-1c-debris", "lat": 1.5742941677316795, "lon": -171.88717146253128, "alt_km": 892.6195983729976, "timestamp": "2025-12-04T21:36:16.150034+00:00", "meta": {"OBJECT_NAME": "FENGYUN 1C DEB", "OBJECT_ID": "1999-025AKG", "EPOCH": "2025-12-04T14:30:53.648640", "MEAN_MOTION": 14.06966853, "ECCENTRICITY": 0.00278286, "INCLINATION": 98.7879, "RA_OF_ASC_NODE": 7.5822, "ARG_OF_PERICENTER": 357.4554, "MEAN_ANOMALY": 125.4538, "EPHEMERIS_TYPE": 0, "CLASSIFICATION_TYPE": "U", "NORAD_CAT_ID": 30542, "ELEMENT_SET_NO": 999, "REV_AT_EPOCH": 96804, "BSTAR": 0.00038202348, "MEAN_MOTION_DOT": 5.97e-06, "MEAN_MOTION_DDOT": 0}, "tle": {"line1": "1 30542U 99025AKG 25338.60478760  .00000597  00000+0  38202-3 0  9996", "line2": "2 30542  98.7879   7.5822 0027828 357.4554 125.4538 14.06966853968041"}}, "geometry": {"type": "Point", "coordinates": [-171.88717146253128, 1.5742941677316795]}}]}